[{"OBJECT_NAME":"STARLINK-36421","OBJECT_ID":"2026-008V","EPOCH":"2026-03-09T09:53:28.816512","MEAN_MOTION":15.27605189,"ECCENTRICITY":0.00028552,"INCLINATION":42.998,"RA_OF_ASC_NODE":206.4528,"ARG_OF_PERICENTER":282.8553,"MEAN_ANOMALY":77.1979,"EPHEMERIS_TYPE":0,"CLASSIFICATION_TYPE":"U","NORAD_CAT_ID":67464,"ELEMENT_SET_NO":999,"REV_AT_EPOCH":953,"BSTAR":0.0015913194,"MEAN_MOTION_DOT":0.00043825,"MEAN_MOTION_DDOT":0},{"OBJECT_NAME":"CZ-6A DEB","OBJECT_ID":"2023-168D","EPOCH":"2026-03-09T19:03:52.964928","MEAN_MOTION":15.28240044,"ECCENTRICITY":0.00013417,"INCLINATION":97.7802,"RA_OF_ASC_NODE":98.3362,"ARG_OF_PERICENTER":174.0661,"MEAN_ANOMALY":186.0594,"EPHEMERIS_TYPE":0,"CLASSIFICATION_TYPE":"U","NORAD_CAT_ID":58202,"ELEMENT_SET_NO":999,"REV_AT_EPOCH":12922,"BSTAR":0.0014474773,"MEAN_MOTION_DOT":0.00039923,"MEAN_MOTION_DDOT":0}]
